[
    {
        "Altitude(m)": 704669.5903713446,
        "Argument of Periapsis(deg)": 0.0,
        "Eccentricity": 0.0,
        "Inclination(deg)": 45.0,
        "Latitude(deg)": 32.41874286573936,
        "Longitude(deg)": 114.20364584893714,
        "Mean Anomaly(deg)": 49.09089999999999,
        "RAAN(deg)": 175.0,
        "Satellite Name": "Constellation 1 773",
        "Satellite Number": 773,
        "Semi-Major Axis(m)": 7083131.272910544,
        "Time(s)": 0
    },
    {
        "Altitude(m)": 704675.540080992,
        "Argument of Periapsis(deg)": 5.994800624540561e-05,
        "Eccentricity": 0.0,
        "Inclination(deg)": 45.0,
        "Latitude(deg)": 32.452148798883584,
        "Longitude(deg)": 114.25960498702834,
        "Mean Anomaly(deg)": 49.1516011402499,
        "RAAN(deg)": 174.99994341083445,
        "Satellite Name": "Constellation 1 773",
        "Satellite Number": 773,
        "Semi-Major Axis(m)": 7083131.272910544,
        "Time(s)": 1
    },
    {
        "Altitude(m)": 704681.4913081577,
        "Argument of Periapsis(deg)": 0.00011989601249081122,
        "Eccentricity": 0.0,
        "Inclination(deg)": 45.0,
        "Latitude(deg)": 32.48552589073205,
        "Longitude(deg)": 114.31560842184282,
        "Mean Anomaly(deg)": 49.2123022804998,
        "RAAN(deg)": 174.99988682166884,
        "Satellite Name": "Constellation 1 773",
        "Satellite Number": 773,
        "Semi-Major Axis(m)": 7083131.272910544,
        "Time(s)": 2
    },
    {
        "Altitude(m)": 704687.4440136617,
        "Argument of Periapsis(deg)": 0.00017984401873621686,
        "Eccentricity": 0.0,
        "Inclination(deg)": 45.0,
        "Latitude(deg)": 32.518874083633634,
        "Longitude(deg)": 114.37165620485099,
        "Mean Anomaly(deg)": 49.27300342074971,
        "RAAN(deg)": 174.99983023250329,
        "Satellite Name": "Constellation 1 773",
        "Satellite Number": 773,
        "Semi-Major Axis(m)": 7083131.272910544,
        "Time(s)": 3
    },
    {
        "Altitude(m)": 704693.3981583229,
        "Argument of Periapsis(deg)": 0.00023979202498162244,
        "Eccentricity": 0.0,
        "Inclination(deg)": 45.0,
        "Latitude(deg)": 32.55219331986493,
        "Longitude(deg)": 114.42774838740648,
        "Mean Anomaly(deg)": 49.33370456099959,
        "RAAN(deg)": 174.99977364333773,
        "Satellite Name": "Constellation 1 773",
        "Satellite Number": 773,
        "Semi-Major Axis(m)": 7083131.272910544,
        "Time(s)": 4
    },
    {
        "Altitude(m)": 704699.3537029843,
        "Argument of Periapsis(deg)": 0.00029974003122702807,
        "Eccentricity": 0.0,
        "Inclination(deg)": 45.0,
        "Latitude(deg)": 32.58548354163015,
        "Longitude(deg)": 114.4838850207452,
        "Mean Anomaly(deg)": 49.394405701249504,
        "RAAN(deg)": 174.99971705417215,
        "Satellite Name": "Constellation 1 773",
        "Satellite Number": 773,
        "Semi-Major Axis(m)": 7083131.272910544,
        "Time(s)": 5
    },
    {
        "Altitude(m)": 704705.3106084919,
        "Argument of Periapsis(deg)": 0.00035968803747243373,
        "Eccentricity": 0.0,
        "Inclination(deg)": 45.0,
        "Latitude(deg)": 32.61874469106124,
        "Longitude(deg)": 114.54006615598465,
        "Mean Anomaly(deg)": 49.45510684149939,
        "RAAN(deg)": 174.9996604650066,
        "Satellite Name": "Constellation 1 773",
        "Satellite Number": 773,
        "Semi-Major Axis(m)": 7083131.272910544,
        "Time(s)": 6
    },
    {
        "Altitude(m)": 704711.2688356991,
        "Argument of Periapsis(deg)": 0.00041963604371783933,
        "Eccentricity": 0.0,
        "Inclination(deg)": 45.0,
        "Latitude(deg)": 32.65197671021806,
        "Longitude(deg)": 114.59629167602523,
        "Mean Anomaly(deg)": 49.515807981749276,
        "RAAN(deg)": 174.999603875841,
        "Satellite Name": "Constellation 1 773",
        "Satellite Number": 773,
        "Semi-Major Axis(m)": 7083131.272910544,
        "Time(s)": 7
    },
    {
        "Altitude(m)": 704717.2283454699,
        "Argument of Periapsis(deg)": 0.0004795840499632449,
        "Eccentricity": 0.0,
        "Inclination(deg)": 45.0,
        "Latitude(deg)": 32.685179541088026,
        "Longitude(deg)": 114.65256196793881,
        "Mean Anomaly(deg)": 49.57650912199916,
        "RAAN(deg)": 174.99954728667544,
        "Satellite Name": "Constellation 1 773",
        "Satellite Number": 773,
        "Semi-Major Axis(m)": 7083131.272910544,
        "Time(s)": 8
    },
    {
        "Altitude(m)": 704723.1890986831,
        "Argument of Periapsis(deg)": 0.0005395320562086505,
        "Eccentricity": 0.0,
        "Inclination(deg)": 45.0,
        "Latitude(deg)": 32.71835312558672,
        "Longitude(deg)": 114.70887691438382,
        "Mean Anomaly(deg)": 49.63721026224908,
        "RAAN(deg)": 174.99949069750988,
        "Satellite Name": "Constellation 1 773",
        "Satellite Number": 773,
        "Semi-Major Axis(m)": 7083131.272910544,
        "Time(s)": 9
    },
    {
        "Altitude(m)": 704729.1510562204,
        "Argument of Periapsis(deg)": 0.0005994800624540561,
        "Eccentricity": 0.0,
        "Inclination(deg)": 45.0,
        "Latitude(deg)": 32.75149740555757,
        "Longitude(deg)": 114.76523656599376,
        "Mean Anomaly(deg)": 49.69791140249902,
        "RAAN(deg)": 174.9994341083443,
        "Satellite Name": "Constellation 1 773",
        "Satellite Number": 773,
        "Semi-Major Axis(m)": 7083131.272910544,
        "Time(s)": 10
    },
    {
        "Altitude(m)": 704735.1141789848,
        "Argument of Periapsis(deg)": 0.0006594280686994618,
        "Eccentricity": 0.0,
        "Inclination(deg)": 45.0,
        "Latitude(deg)": 32.78461232277201,
        "Longitude(deg)": 114.82164097327849,
        "Mean Anomaly(deg)": 49.7586125427489,
        "RAAN(deg)": 174.99937751917875,
        "Satellite Name": "Constellation 1 773",
        "Satellite Number": 773,
        "Semi-Major Axis(m)": 7083131.272910544,
        "Time(s)": 11
    },
    {
        "Altitude(m)": 704741.0784278758,
        "Argument of Periapsis(deg)": 0.0007193760749448675,
        "Eccentricity": 0.0,
        "Inclination(deg)": 45.0,
        "Latitude(deg)": 32.81769781892955,
        "Longitude(deg)": 114.87809018662355,
        "Mean Anomaly(deg)": 49.81931368299879,
        "RAAN(deg)": 174.99932093001317,
        "Satellite Name": "Constellation 1 773",
        "Satellite Number": 773,
        "Semi-Major Axis(m)": 7083131.272910544,
        "Time(s)": 12
    },
    {
        "Altitude(m)": 704747.0437638118,
        "Argument of Periapsis(deg)": 0.000779324081190273,
        "Eccentricity": 0.0,
        "Inclination(deg)": 45.0,
        "Latitude(deg)": 32.85075383565785,
        "Longitude(deg)": 114.93458425628928,
        "Mean Anomaly(deg)": 49.88001482324867,
        "RAAN(deg)": 174.9992643408476,
        "Satellite Name": "Constellation 1 773",
        "Satellite Number": 773,
        "Semi-Major Axis(m)": 7083131.272910544,
        "Time(s)": 13
    },
    {
        "Altitude(m)": 704753.010147725,
        "Argument of Periapsis(deg)": 0.0008392720874356787,
        "Eccentricity": 0.0,
        "Inclination(deg)": 45.0,
        "Latitude(deg)": 32.88378031451272,
        "Longitude(deg)": 114.99112323240956,
        "Mean Anomaly(deg)": 49.94071596349858,
        "RAAN(deg)": 174.99920775168204,
        "Satellite Name": "Constellation 1 773",
        "Satellite Number": 773,
        "Semi-Major Axis(m)": 7083131.272910544,
        "Time(s)": 14
    },
    {
        "Altitude(m)": 704758.9775405528,
        "Argument of Periapsis(deg)": 0.0008992200936810842,
        "Eccentricity": 0.0,
        "Inclination(deg)": 45.0,
        "Latitude(deg)": 32.91677719697834,
        "Longitude(deg)": 115.04770699689377,
        "Mean Anomaly(deg)": 50.001417103748466,
        "RAAN(deg)": 174.99915116251645,
        "Satellite Name": "Constellation 1 773",
        "Satellite Number": 773,
        "Semi-Major Axis(m)": 7083131.272910544,
        "Time(s)": 15
    },
    {
        "Altitude(m)": 704764.9459032473,
        "Argument of Periapsis(deg)": 0.0009591680999264898,
        "Eccentricity": 0.0,
        "Inclination(deg)": 45.0,
        "Latitude(deg)": 32.94974442446693,
        "Longitude(deg)": 115.10433593581466,
        "Mean Anomaly(deg)": 50.062118243998384,
        "RAAN(deg)": 174.9990945733509,
        "Satellite Name": "Constellation 1 773",
        "Satellite Number": 773,
        "Semi-Major Axis(m)": 7083131.272910544,
        "Time(s)": 16
    },
    {
        "Altitude(m)": 704770.9151967707,
        "Argument of Periapsis(deg)": 0.0010191161061718953,
        "Eccentricity": 0.0,
        "Inclination(deg)": 45.0,
        "Latitude(deg)": 32.982681938319296,
        "Longitude(deg)": 115.16100993082404,
        "Mean Anomaly(deg)": 50.122819384248274,
        "RAAN(deg)": 174.99903798418532,
        "Satellite Name": "Constellation 1 773",
        "Satellite Number": 773,
        "Semi-Major Axis(m)": 7083131.272910544,
        "Time(s)": 17
    },
    {
        "Altitude(m)": 704776.8853820954,
        "Argument of Periapsis(deg)": 0.001079064112417301,
        "Eccentricity": 0.0,
        "Inclination(deg)": 45.0,
        "Latitude(deg)": 33.01558967980477,
        "Longitude(deg)": 115.21772903154086,
        "Mean Anomaly(deg)": 50.183520524498185,
        "RAAN(deg)": 174.99898139501977,
        "Satellite Name": "Constellation 1 773",
        "Satellite Number": 773,
        "Semi-Major Axis(m)": 7083131.272910544,
        "Time(s)": 18
    }
]